#aV2014  8 12  0  0  0.00000000     288 DD+AD WGS84 FIT  NGA
## 1805 172800.00000000   300.00000000 56881 0.0000000000000
+   32     1  2  3  4  5  6  7  8  9 10 11 12 13 14 15 16 17
+         18 19 20 21 22 23 24 25 26 27 28 29 30 31 32  0  0
+          0  0  0  0  0  0  0  0  0  0  0  0  0  0  0  0  0
+          0  0  0  0  0  0  0  0  0  0  0  0  0  0  0  0  0
+          0  0  0  0  0  0  0  0  0  0  0  0  0  0  0  0  0
++         2  2  2  2  2  2  2  2  2  2  2  2  2  2  2  2  2
++         2  2  2  2  2  2  2  2  2  2  2  2  2  2  2  0  0
++         0  0  0  0  0  0  0  0  0  0  0  0  0  0  0  0  0
++         0  0  0  0  0  0  0  0  0  0  0  0  0  0  0  0  0
++         0  0  0  0  0  0  0  0  0  0  0  0  0  0  0  0  0
%c cc cc ccc ccc cccc cccc cccc cccc ccccc ccccc ccccc ccccc
%c cc cc ccc ccc cccc cccc cccc cccc ccccc ccccc ccccc ccccc
%f  0.0000000  0.000000000  0.00000000000  0.000000000000000
%f  0.0000000  0.000000000  0.00000000000  0.000000000000000
%i    0    0    0    0      0      0      0      0         0
%i    0    0    0    0      0      0      0      0         0
/*      NGA, ST. LOUIS,MO.                                  
/*   EPHEMERIS COMPUTED FROM  1 DAYS OF DATA                
/*   EPOCHA SMOOTHER                                       
/* CCCCCCCCCCCCCCCCCCCCCCCCCCCCCCCCCCCCCCCCCCCCCCCCCCCCCCCCC
*  2014  8 12 19  0  0.00000000
P  1  14620.031219  -4093.836081  21751.353732     19.492232                    
V  1   6746.098897  26880.531849    672.486397      0.006737                    
P  2 -13754.504232 -20188.300276 -10692.904332    512.196515                    
V  2  -1127.660008 -14120.144085  26848.242675      0.021728                    
P  3  25785.602665   5886.452238  -3673.619162    402.990592                    
V  3  -4354.541509   2785.339171 -30725.452039      0.049390                    
P  4   5804.349191 -20828.588820  14910.327793      7.128975                    
V  4   7680.522145  18324.454076  22399.280532     -0.001620                    
P  5 -13909.849601  -7821.699341 -21287.404601   -349.913052                    
V  5  18938.770642 -19212.790490  -5156.333810      0.034183                    
P  6  -6693.740522 -25708.920910   -175.724171     -4.012827                    
V  6   2650.391885   -892.315029  31762.953537     -0.011847                    
P  7   8304.600765 -17756.842156 -17667.318608    379.391862                    
V  7   6635.141461  21776.044914 -19025.374164      0.042956                    
P  8   6762.643925 -20862.102614 -14294.674122     15.153403                    
V  8   4023.339693  18331.999020 -25148.972829      0.000348                    
P  9 -25772.054638  -7465.660735   -321.822500     14.435248                    
V  9   1079.172039  -2347.642591 -31568.543204      0.055671                    
P 10   1066.599146 -19366.168841 -18304.106346   -137.581416                    
V 10  17878.476607 -14231.671854  16834.898280     -0.015768                    
P 11  19000.911964   2822.859602  17907.285458   -512.820006                    
V 11  10941.979557  21480.855740 -14396.681925     -0.030085                    
P 12 -21603.340950   7739.922938  13102.887488    224.492438                    
V 12  11357.995624 -12506.544945  26167.852553      0.025838                    
P 13  17509.881422  -6754.770459 -18985.919461    -30.336529                    
V 13  21617.130218   9889.464928  16353.548513     -0.039421                    
P 14   2215.629197  16274.668686  21135.114926    145.430464                    
V 14 -24850.603185  -8466.306922   9074.430870     -0.036491                    
P 15 -26173.849298  -2978.591401   4425.124108   -196.506812                    
V 15  -4729.136382  -4528.613754 -30325.377398     -0.022072                    
P 16  13138.580771   7683.423479 -21867.129960   -201.842906                    
V 16 -20707.461973  18096.141227  -5753.135416      0.023535                    
P 17  -2382.550054 -16154.153443  21252.560005   -116.022899                    
V 17  25145.592367   7755.558941   8600.067237     -0.027655                    
P 18 -15224.593017  20958.954677   5485.995026    337.639596                    
V 18  -7434.699202   1733.279208 -30102.086671      0.024805                    
P 19  25376.733070   8359.222693   2024.144022   -473.160646                    
V 19   1725.919808   3091.127253 -31449.526621     -0.019520                    
P 20  21160.515592 -12686.148740   9561.274592    221.277812                    
V 20  -5728.452649  11660.547845  27675.038722      0.043358                    
P 21  -4745.991913  21684.005281 -13609.879144   -377.988184                    
V 21  -7912.934204 -17169.626189 -23928.384025     -0.021337                    
P 22  -4316.398915  21037.398044  15743.180107    258.291223                    
V 22 -15974.632953  11981.435185 -20843.531236      0.033296                    
P 23  23913.731006  -1735.874446 -11759.077719    -43.986029                    
V 23  13716.462324   6475.409670  26234.177337     -0.029510                    
P 24 -15707.888960   -339.034755  21406.607793    -33.401776                    
V 24  -6544.032419 -26434.458275  -5118.852958     -0.006341                    
P 25 -19974.590787  17215.006712   2416.152117     23.737465                    
V 25    577.721858  -3947.778523  31995.907250     -0.006003                    
P 26 -22282.175416 -13521.471589  -6489.067083    -17.541597                    
V 26   7525.094494    850.999668 -30464.121329     -0.129843                    
P 27  21650.624963  12565.335850  -8991.230555      5.512444                    
V 27 -11604.186296   -745.052757 -28964.490466      0.032142                    
P 28   9603.585775 -20572.934959  14278.897470    376.681470                    
V 28  13955.589732  -9999.926477 -24981.462463      0.028219                    
P 29 -16779.361024   7978.007630 -18934.295194    553.200968                    
V 29 -22381.226717  -9014.496171  16051.706572      0.025500                    
P 30   2287.782068 -24797.424127  -9173.766625    -47.434355                    
V 30   4580.966073  11045.909578 -28774.283258     -0.055463                    
P 31   6860.178562  25403.518851  -1849.792824    332.772194                    
V 31  -1926.935384   3034.806476  32227.799927     -0.003847                    
P 32  19052.370180   1369.990759  18266.551283   -364.350475                    
V 32 -16783.892975  16357.712282  16857.059785      0.084388                    
EOF
